ORBCOMM FM05            
1 25117U 97084F   25361.69552128  .00001906  00000+0  56133-3 0  9995
2 25117  45.0130 158.4203 0002924 133.5524 226.5571 14.46753790468624
ORBCOMM FM06            
1 25118U 97084G   25361.73948080  .00001804  00000+0  53171-3 0  9993
2 25118  45.0120 157.7133 0001911 143.0718 231.2938 14.46915787469553
ORBCOMM FM07            
1 25119U 97084H   25361.47279683  .00001824  00000+0  53702-3 0  9993
2 25119  45.0117 159.7436 0003624 124.6689 235.4504 14.46928745469501
ORBCOMM FM03            
1 25158U 98007B   25361.74381440  .00001580  00000+0  59199-3 0  9992
2 25158 107.9650 173.3461 0046864 269.6757  89.9013 14.35067920451801
ORBCOMM FM04            
1 25159U 98007C   25361.76466188  .00001490  00000+0  55966-3 0  9996
2 25159 107.9640 176.7421 0042665 267.1028  92.5229 14.35312911451995
ORBCOMM FM17            
1 25413U 98046A   25361.62043543  .00001110  00000+0  43051-3 0  9994
2 25413  44.9947  64.3935 0001834 155.5069 204.5866 14.35569265430960
ORBCOMM FM18            
1 25414U 98046B   25361.44404757  .00001464  00000+0  51379-3 0  9997
2 25414  44.9941 337.3541 0003923 206.2084 153.8567 14.39193836432083
ORBCOMM FM19            
1 25415U 98046C   25361.65714080  .00001692  00000+0  58874-3 0  9994
2 25415  44.9952 338.6366 0002721 213.6546 317.3701 14.39017392432062
